[{"OBJECT_NAME":"ONEWEB-0351","OBJECT_ID":"2021-083AF","EPOCH":"2026-03-12T03:20:08.329920","MEAN_MOTION":13.20770923,"ECCENTRICITY":0.00024182,"INCLINATION":87.9169,"RA_OF_ASC_NODE":293.8158,"ARG_OF_PERICENTER":96.1851,"MEAN_ANOMALY":263.9558,"EPHEMERIS_TYPE":0,"CLASSIFICATION_TYPE":"U","NORAD_CAT_ID":49215,"ELEMENT_SET_NO":999,"REV_AT_EPOCH":22396,"BSTAR":0.00016680448,"MEAN_MOTION_DOT":8.1e-7,"MEAN_MOTION_DDOT":0},{"OBJECT_NAME":"ONEWEB-0352","OBJECT_ID":"2021-083AG","EPOCH":"2026-03-12T06:42:29.733984","MEAN_MOTION":13.13470881,"ECCENTRICITY":0.000204,"INCLINATION":87.9027,"RA_OF_ASC_NODE":339.5148,"ARG_OF_PERICENTER":87.9621,"MEAN_ANOMALY":272.1742,"EPHEMERIS_TYPE":0,"CLASSIFICATION_TYPE":"U","NORAD_CAT_ID":49216,"ELEMENT_SET_NO":999,"REV_AT_EPOCH":21830,"BSTAR":0.00076122386,"MEAN_MOTION_DOT":2.91e-6,"MEAN_MOTION_DDOT":0},{"OBJECT_NAME":"ONEWEB-0354","OBJECT_ID":"2021-083AH","EPOCH":"2026-03-12T03:56:41.002080","MEAN_MOTION":13.20769899,"ECCENTRICITY":0.00017053,"INCLINATION":87.9167,"RA_OF_ASC_NODE":293.8101,"ARG_OF_PERICENTER":79.9262,"MEAN_ANOMALY":280.2064,"EPHEMERIS_TYPE":0,"CLASSIFICATION_TYPE":"U","NORAD_CAT_ID":49217,"ELEMENT_SET_NO":999,"REV_AT_EPOCH":22400,"BSTAR":0.00018590847,"MEAN_MOTION_DOT":8.9e-7,"MEAN_MOTION_DDOT":0},{"OBJECT_NAME":"ONEWEB-0355","OBJECT_ID":"2021-083AJ","EPOCH":"2026-03-12T05:34:25.491072","MEAN_MOTION":13.13469566,"ECCENTRICITY":0.00019867,"INCLINATION":87.9027,"RA_OF_ASC_NODE":339.5338,"ARG_OF_PERICENTER":78.4927,"MEAN_ANOMALY":281.6425,"EPHEMERIS_TYPE":0,"CLASSIFICATION_TYPE":"U","NORAD_CAT_ID":49218,"ELEMENT_SET_NO":999,"REV_AT_EPOCH":21817,"BSTAR":-0.00075080646,"MEAN_MOTION_DOT":-2.61e-6,"MEAN_MOTION_DDOT":0},{"OBJECT_NAME":"ONEWEB-0357","OBJECT_ID":"2021-083AK","EPOCH":"2026-03-12T03:52:08.413536","MEAN_MOTION":13.2077041,"ECCENTRICITY":0.00018123,"INCLINATION":87.9165,"RA_OF_ASC_NODE":293.8058,"ARG_OF_PERICENTER":88.6191,"MEAN_ANOMALY":271.515,"EPHEMERIS_TYPE":0,"CLASSIFICATION_TYPE":"U","NORAD_CAT_ID":49219,"ELEMENT_SET_NO":999,"REV_AT_EPOCH":22400,"BSTAR":1.8620692e-5,"MEAN_MOTION_DOT":2.1e-7,"MEAN_MOTION_DDOT":0},{"OBJECT_NAME":"ONEWEB-0332","OBJECT_ID":"2021-090A","EPOCH":"2026-03-12T04:02:34.666656","MEAN_MOTION":13.14503015,"ECCENTRICITY":0.00016399,"INCLINATION":87.8982,"RA_OF_ASC_NODE":309.069,"ARG_OF_PERICENTER":90.263,"MEAN_ANOMALY":269.8687,"EPHEMERIS_TYPE":0,"CLASSIFICATION_TYPE":"U","NORAD_CAT_ID":49279,"ELEMENT_SET_NO":999,"REV_AT_EPOCH":21483,"BSTAR":0.00035601064,"MEAN_MOTION_DOT":1.45e-6,"MEAN_MOTION_DDOT":0},{"OBJECT_NAME":"ONEWEB-0347","OBJECT_ID":"2021-090B","EPOCH":"2026-03-12T03:38:30.642720","MEAN_MOTION":13.20770489,"ECCENTRICITY":0.00015048,"INCLINATION":87.9166,"RA_OF_ASC_NODE":293.8163,"ARG_OF_PERICENTER":98.7774,"MEAN_ANOMALY":261.3529,"EPHEMERIS_TYPE":0,"CLASSIFICATION_TYPE":"U","NORAD_CAT_ID":49280,"ELEMENT_SET_NO":999,"REV_AT_EPOCH":21823,"BSTAR":7.1898065e-5,"MEAN_MOTION_DOT":4.2e-7,"MEAN_MOTION_DDOT":0},{"OBJECT_NAME":"ONEWEB-0349","OBJECT_ID":"2021-090C","EPOCH":"2026-03-12T02:34:52.667328","MEAN_MOTION":13.20770288,"ECCENTRICITY":0.00016613,"INCLINATION":87.9168,"RA_OF_ASC_NODE":293.8248,"ARG_OF_PERICENTER":84.6206,"MEAN_ANOMALY":275.5117,"EPHEMERIS_TYPE":0,"CLASSIFICATION_TYPE":"U","NORAD_CAT_ID":49281,"ELEMENT_SET_NO":999,"REV_AT_EPOCH":21701,"BSTAR":0.00025164223,"MEAN_MOTION_DOT":1.15e-6,"MEAN_MOTION_DDOT":0},{"OBJECT_NAME":"ONEWEB-0353","OBJECT_ID":"2021-090D","EPOCH":"2026-03-12T03:51:09.386784","MEAN_MOTION":13.14503391,"ECCENTRICITY":0.00015337,"INCLINATION":87.8984,"RA_OF_ASC_NODE":309.0643,"ARG_OF_PERICENTER":94.2363,"MEAN_ANOMALY":265.8942,"EPHEMERIS_TYPE":0,"CLASSIFICATION_TYPE":"U","NORAD_CAT_ID":49282,"ELEMENT_SET_NO":999,"REV_AT_EPOCH":21483,"BSTAR":-0.00015443724,"MEAN_MOTION_DOT":-4.4e-7,"MEAN_MOTION_DDOT":0},{"OBJECT_NAME":"ONEWEB-0356","OBJECT_ID":"2021-090E","EPOCH":"2026-03-12T02:32:35.672352","MEAN_MOTION":13.20769909,"ECCENTRICITY":7.541e-5,"INCLINATION":87.9171,"RA_OF_ASC_NODE":293.8183,"ARG_OF_PERICENTER":84.3655,"MEAN_ANOMALY":275.7564,"EPHEMERIS_TYPE":0,"CLASSIFICATION_TYPE":"U","NORAD_CAT_ID":49283,"ELEMENT_SET_NO":999,"REV_AT_EPOCH":21701,"BSTAR":0.00018004751,"MEAN_MOTION_DOT":8.6e-7,"MEAN_MOTION_DDOT":0},{"OBJECT_NAME":"ONEWEB-0358","OBJECT_ID":"2021-090F","EPOCH":"2026-03-12T03:15:47.245536","MEAN_MOTION":13.20770759,"ECCENTRICITY":0.00015574,"INCLINATION":87.9164,"RA_OF_ASC_NODE":293.8159,"ARG_OF_PERICENTER":81.5612,"MEAN_ANOMALY":278.5697,"EPHEMERIS_TYPE":0,"CLASSIFICATION_TYPE":"U","NORAD_CAT_ID":49284,"ELEMENT_SET_NO":999,"REV_AT_EPOCH":21774,"BSTAR":-4.5000073e-5,"MEAN_MOTION_DOT":-5.0e-8,"MEAN_MOTION_DDOT":0},{"OBJECT_NAME":"ONEWEB-0359","OBJECT_ID":"2021-090G","EPOCH":"2026-03-12T03:11:14.707968","MEAN_MOTION":13.20771098,"ECCENTRICITY":0.00016817,"INCLINATION":87.917,"RA_OF_ASC_NODE":293.8134,"ARG_OF_PERICENTER":75.2545,"MEAN_ANOMALY":284.8775,"EPHEMERIS_TYPE":0,"CLASSIFICATION_TYPE":"U","NORAD_CAT_ID":49285,"ELEMENT_SET_NO":999,"REV_AT_EPOCH":21772,"BSTAR":7.8741606e-5,"MEAN_MOTION_DOT":4.5e-7,"MEAN_MOTION_DDOT":0},{"OBJECT_NAME":"ONEWEB-0360","OBJECT_ID":"2021-090H","EPOCH":"2026-03-12T02:57:35.661888","MEAN_MOTION":13.20770156,"ECCENTRICITY":0.00017083,"INCLINATION":87.9166,"RA_OF_ASC_NODE":293.8217,"ARG_OF_PERICENTER":81.0366,"MEAN_ANOMALY":279.0961,"EPHEMERIS_TYPE":0,"CLASSIFICATION_TYPE":"U","NORAD_CAT_ID":49286,"ELEMENT_SET_NO":999,"REV_AT_EPOCH":21703,"BSTAR":0.00025409502,"MEAN_MOTION_DOT":1.16e-6,"MEAN_MOTION_DDOT":0},{"OBJECT_NAME":"ONEWEB-0361","OBJECT_ID":"2021-090J","EPOCH":"2026-03-12T04:19:24.709440","MEAN_MOTION":13.20769921,"ECCENTRICITY":0.00014611,"INCLINATION":87.9169,"RA_OF_ASC_NODE":293.8082,"ARG_OF_PERICENTER":82.9684,"MEAN_ANOMALY":277.1615,"EPHEMERIS_TYPE":0,"CLASSIFICATION_TYPE":"U","NORAD_CAT_ID":49287,"ELEMENT_SET_NO":999,"REV_AT_EPOCH":21749,"BSTAR":0.00017325191,"MEAN_MOTION_DOT":8.3e-7,"MEAN_MOTION_DDOT":0},{"OBJECT_NAME":"ONEWEB-0362","OBJECT_ID":"2021-090K","EPOCH":"2026-03-12T04:58:52.186944","MEAN_MOTION":13.19724531,"ECCENTRICITY":0.00019588,"INCLINATION":87.9225,"RA_OF_ASC_NODE":324.3033,"ARG_OF_PERICENTER":81.9433,"MEAN_ANOMALY":278.1922,"EPHEMERIS_TYPE":0,"CLASSIFICATION_TYPE":"U","NORAD_CAT_ID":49288,"ELEMENT_SET_NO":999,"REV_AT_EPOCH":21412,"BSTAR":-4.342157e-6,"MEAN_MOTION_DOT":1.1e-7,"MEAN_MOTION_DDOT":0},{"OBJECT_NAME":"ONEWEB-0363","OBJECT_ID":"2021-090L","EPOCH":"2026-03-12T02:53:03.716160","MEAN_MOTION":13.20770726,"ECCENTRICITY":0.00013152,"INCLINATION":87.9168,"RA_OF_ASC_NODE":293.8207,"ARG_OF_PERICENTER":78.6853,"MEAN_ANOMALY":281.4428,"EPHEMERIS_TYPE":0,"CLASSIFICATION_TYPE":"U","NORAD_CAT_ID":49289,"ELEMENT_SET_NO":999,"REV_AT_EPOCH":21749,"BSTAR":0.00020288875,"MEAN_MOTION_DOT":9.5e-7,"MEAN_MOTION_DDOT":0}]
