ONEWEB-0351             
1 49215U 21083AF  26071.13898530  .00000081  00000+0  16680-3 0  9990
2 49215  87.9169 293.8158 0002418  96.1851 263.9558 13.20770923223968
ONEWEB-0352             
1 49216U 21083AG  26071.27951081  .00000291  00000+0  76122-3 0  9997
2 49216  87.9027 339.5148 0002040  87.9621 272.1742 13.13470881218304
ONEWEB-0354             
1 49217U 21083AH  26071.16436345  .00000089  00000+0  18591-3 0  9998
2 49217  87.9167 293.8101 0001705  79.9262 280.2064 13.20769899224009
ONEWEB-0355             
1 49218U 21083AJ  26071.23223948 -.00000261  00000+0 -75081-3 0  9991
2 49218  87.9027 339.5338 0001986  78.4927 281.6425 13.13469566218175
ONEWEB-0357             
1 49219U 21083AK  26071.16120849  .00000021  00000+0  18621-4 0  9990
2 49219  87.9165 293.8058 0001812  88.6191 271.5150 13.20770410224007
ONEWEB-0332             
1 49279U 21090A   26071.16845679  .00000145  00000+0  35601-3 0  9992
2 49279  87.8982 309.0690 0001639  90.2630 269.8687 13.14503015214838
ONEWEB-0347             
1 49280U 21090B   26071.15174355  .00000042  00000+0  71898-4 0  9994
2 49280  87.9166 293.8163 0001504  98.7774 261.3529 13.20770489218231
ONEWEB-0349             
1 49281U 21090C   26071.10755402  .00000115  00000+0  25164-3 0  9993
2 49281  87.9168 293.8248 0001661  84.6206 275.5117 13.20770288217018
ONEWEB-0353             
1 49282U 21090D   26071.16052531 -.00000044  00000+0 -15444-3 0  9996
2 49282  87.8984 309.0643 0001533  94.2363 265.8942 13.14503391214839
ONEWEB-0356             
1 49283U 21090E   26071.10596843  .00000086  00000+0  18005-3 0  9990
2 49283  87.9171 293.8183 0000754  84.3655 275.7564 13.20769909217015
ONEWEB-0358             
1 49284U 21090F   26071.13596349 -.00000005  00000+0 -45000-4 0  9994
2 49284  87.9164 293.8159 0001557  81.5612 278.5697 13.20770759217748
ONEWEB-0359             
1 49285U 21090G   26071.13280912  .00000045  00000+0  78742-4 0  9992
2 49285  87.9170 293.8134 0001681  75.2545 284.8775 13.20771098217724
ONEWEB-0360             
1 49286U 21090H   26071.12332942  .00000116  00000+0  25410-3 0  9995
2 49286  87.9166 293.8217 0001708  81.0366 279.0961 13.20770156217039
ONEWEB-0361             
1 49287U 21090J   26071.18014710  .00000083  00000+0  17325-3 0  9991
2 49287  87.9169 293.8082 0001461  82.9684 277.1615 13.20769921217495
ONEWEB-0362             
1 49288U 21090K   26071.20754846  .00000011  00000+0 -43422-5 0  9997
2 49288  87.9225 324.3033 0001958  81.9433 278.1922 13.19724531214122
ONEWEB-0363             
1 49289U 21090L   26071.12018190  .00000095  00000+0  20289-3 0  9999
2 49289  87.9168 293.8207 0001315  78.6853 281.4428 13.20770726217498
